[{"OBJECT_NAME":"STARLINK-4111","OBJECT_ID":"2022-083AD","EPOCH":"2026-03-09T13:49:46.127712","MEAN_MOTION":15.08842691,"ECCENTRICITY":0.0001358,"INCLINATION":53.2171,"RA_OF_ASC_NODE":164.6297,"ARG_OF_PERICENTER":82.4039,"MEAN_ANOMALY":277.7107,"EPHEMERIS_TYPE":0,"CLASSIFICATION_TYPE":"U","NORAD_CAT_ID":53159,"ELEMENT_SET_NO":999,"REV_AT_EPOCH":20134,"BSTAR":-1.6433e-5,"MEAN_MOTION_DOT":-5.49e-6,"MEAN_MOTION_DDOT":0},{"OBJECT_NAME":"METOP-A","OBJECT_ID":"2006-044A","EPOCH":"2026-03-09T22:42:22.748832","MEAN_MOTION":14.75579804,"ECCENTRICITY":0.01753829,"INCLINATION":98.3242,"RA_OF_ASC_NODE":172.6157,"ARG_OF_PERICENTER":26.1658,"MEAN_ANOMALY":115.682,"EPHEMERIS_TYPE":0,"CLASSIFICATION_TYPE":"U","NORAD_CAT_ID":29499,"ELEMENT_SET_NO":999,"REV_AT_EPOCH":1081,"BSTAR":0.00024290621,"MEAN_MOTION_DOT":2.062e-5,"MEAN_MOTION_DDOT":0}]
